ORBCOMM-X               
1 21576U 91050C   24132.45433603  .00003903  00000+0  11901-2 0  9994
2 21576  98.3910 200.2680 0002926 338.9044  21.2025 14.42507032724408
ORBCOMM FM01            
1 23545U 95017A   24131.90850447  .00013494  00000+0  17898-2 0  9994
2 23545  69.9683 349.4586 0008178 225.2335 134.8150 14.79933034552789
ORBCOMM FM02            
1 23546U 95017B   24131.93764870  .00017568  00000+0  23470-2 0  9991
2 23546  69.9709   8.8121 0009868 218.2940 141.7510 14.79536349552438
ORBCOMM FM08            
1 25112U 97084A   24132.01990167  .00010208  00000+0  30858-2 0  9990
2 25112  45.0128 133.6704 0007873   2.4703 357.6185 14.42539750383401
ORBCOMM FM10            
1 25113U 97084B   24132.37313323  .00015241  00000+0  45890-2 0  9997
2 25113  45.0142 133.8398 0006447 335.0130  25.0408 14.42474235383448
ORBCOMM FM11            
1 25114U 97084C   24132.39188623  .00013841  00000+0  41827-2 0  9993
2 25114  45.0127 133.8191 0007192 336.7947  23.2578 14.42350589383437
ORBCOMM FM12            
1 25115U 97084D   24131.93617163  .00003400  00000+0  10633-2 0  9990
2 25115  45.0144 135.6915 0006279 333.0482  27.0041 14.42275556383370
ORBCOMM FM09            
1 25116U 97084E   24132.36309137  .00014396  00000+0  43546-2 0  9993
2 25116  45.0137 134.3399 0007570 325.7782  34.2580 14.42276773383438
